{
  "type": "FeatureCollection",
  "features": [
    {
      "type": "Feature",
      "properties": {
        "norad_id": 40376,
        "name": "SMAP",
        "group": "resource",
        "lat": 76.41512416892057,
        "lon": -147.18538624494934,
        "alt_km": 674.3070379312603,
        "timestamp": "2025-12-17T21:39:45.365882+00:00",
        "meta_object_name": "SMAP",
        "meta_object_id": "2015-003A",
        "meta_epoch": "2025-12-17T14:38:20.732352",
        "meta_mean_motion": 14.633512,
        "meta_eccentricity": 0.0001216,
        "meta_inclination": 98.1289,
        "meta_ra_of_asc_node": 356.2636,
        "meta_arg_of_pericenter": 90.9416,
        "meta_mean_anomaly": 269.1925,
        "meta_ephemeris_type": 0,
        "meta_classification_type": "U",
        "meta_norad_cat_id": 40376,
        "meta_element_set_no": 999,
        "meta_rev_at_epoch": 58106,
        "meta_bstar": 9.8760968e-05,
        "meta_mean_motion_dot": 4.63e-06,
        "meta_mean_motion_ddot": 0,
        "tle_line1": "1 40376U 15003A   25351.60996218  .00000463  00000+0  98761-4 0  9993",
        "tle_line2": "2 40376  98.1289 356.2636 0001216  90.9416 269.1925 14.63351200581068"
      },
      "geometry": {
        "type": "Point",
        "coordinates": [
          -147.18538624494934,
          76.41512416892057
        ]
      }
    },
    {
      "type": "Feature",
      "properties": {
        "norad_id": 40536,
        "name": "KOMPSAT-3A",
        "group": "resource",
        "lat": -29.928426776715664,
        "lon": 142.0802393267412,
        "alt_km": 440.29595453568527,
        "timestamp": "2025-12-17T21:39:45.365891+00:00",
        "meta_object_name": "KOMPSAT-3A",
        "meta_object_id": "2015-014A",
        "meta_epoch": "2025-12-17T14:32:05.104896",
        "meta_mean_motion": 15.44121801,
        "meta_eccentricity": 0.00052345,
        "meta_inclination": 97.6784,
        "meta_ra_of_asc_node": 326.2214,
        "meta_arg_of_pericenter": 115.9949,
        "meta_mean_anomaly": 244.1838,
        "meta_ephemeris_type": 0,
        "meta_classification_type": "U",
        "meta_norad_cat_id": 40536,
        "meta_element_set_no": 999,
        "meta_rev_at_epoch": 59370,
        "meta_bstar": 0.00036143496,
        "meta_mean_motion_dot": 0.00016469,
        "meta_mean_motion_ddot": 0,
        "tle_line1": "1 40536U 15014A   25351.60561464  .00016469  00000+0  36143-3 0  9992",
        "tle_line2": "2 40536  97.6784 326.2214 0005234 115.9949 244.1838 15.44121801593704"
      },
      "geometry": {
        "type": "Point",
        "coordinates": [
          142.0802393267412,
          -29.928426776715664
        ]
      }
    },
    {
      "type": "Feature",
      "properties": {
        "norad_id": 40697,
        "name": "SENTINEL-2A",
        "group": "resource",
        "lat": 80.35063415126417,
        "lon": 1.8845727727804884,
        "alt_km": 780.8255864685661,
        "timestamp": "2025-12-17T21:39:45.365900+00:00",
        "meta_object_name": "SENTINEL-2A",
        "meta_object_id": "2015-028A",
        "meta_epoch": "2025-12-17T14:33:03.608064",
        "meta_mean_motion": 14.3081562,
        "meta_eccentricity": 0.00010562,
        "meta_inclination": 98.5691,
        "meta_ra_of_asc_node": 64.0694,
        "meta_arg_of_pericenter": 88.6707,
        "meta_mean_anomaly": 271.4597,
        "meta_ephemeris_type": 0,
        "meta_classification_type": "U",
        "meta_norad_cat_id": 40697,
        "meta_element_set_no": 999,
        "meta_rev_at_epoch": 54776,
        "meta_bstar": 8.3955241e-05,
        "meta_mean_motion_dot": 1.76e-06,
        "meta_mean_motion_ddot": 0,
        "tle_line1": "1 40697U 15028A   25351.60629176  .00000176  00000+0  83955-4 0  9992",
        "tle_line2": "2 40697  98.5691  64.0694 0001056  88.6707 271.4597 14.30815620547767"
      },
      "geometry": {
        "type": "Point",
        "coordinates": [
          1.8845727727804884,
          80.35063415126417
        ]
      }
    },
    {
      "type": "Feature",
      "properties": {
        "norad_id": 40701,
        "name": "GAOFEN-8",
        "group": "resource",
        "lat": -26.772575285109713,
        "lon": 174.2038635914305,
        "alt_km": 462.5538257865737,
        "timestamp": "2025-12-17T21:39:45.365910+00:00",
        "meta_object_name": "GAOFEN-8",
        "meta_object_id": "2015-030A",
        "meta_epoch": "2025-12-17T15:32:13.382304",
        "meta_mean_motion": 15.38714142,
        "meta_eccentricity": 0.00118543,
        "meta_inclination": 97.69,
        "meta_ra_of_asc_node": 170.0271,
        "meta_arg_of_pericenter": 121.731,
        "meta_mean_anomaly": 238.5092,
        "meta_ephemeris_type": 0,
        "meta_classification_type": "U",
        "meta_norad_cat_id": 40701,
        "meta_element_set_no": 999,
        "meta_rev_at_epoch": 58346,
        "meta_bstar": 0.00043355612,
        "meta_mean_motion_dot": 0.00016553,
        "meta_mean_motion_ddot": 0,
        "tle_line1": "1 40701U 15030A   25351.64737711  .00016553  00000+0  43356-3 0  9996",
        "tle_line2": "2 40701  97.6900 170.0271 0011854 121.7310 238.5092 15.38714142583468"
      },
      "geometry": {
        "type": "Point",
        "coordinates": [
          174.2038635914305,
          -26.772575285109713
        ]
      }
    },
    {
      "type": "Feature",
      "properties": {
        "norad_id": 40718,
        "name": "CARBONITE 1 (CBNT-1)",
        "group": "resource",
        "lat": -51.89170291756714,
        "lon": -177.42757958393523,
        "alt_km": 635.8052137797858,
        "timestamp": "2025-12-17T21:39:45.365919+00:00",
        "meta_object_name": "CARBONITE 1 (CBNT-1)",
        "meta_object_id": "2015-032D",
        "meta_epoch": "2025-12-17T13:48:06.827328",
        "meta_mean_motion": 14.82765159,
        "meta_eccentricity": 0.00147223,
        "meta_inclination": 97.6398,
        "meta_ra_of_asc_node": 172.4057,
        "meta_arg_of_pericenter": 165.637,
        "meta_mean_anomaly": 194.5266,
        "meta_ephemeris_type": 0,
        "meta_classification_type": "U",
        "meta_norad_cat_id": 40718,
        "meta_element_set_no": 999,
        "meta_rev_at_epoch": 56242,
        "meta_bstar": 0.00015133662,
        "meta_mean_motion_dot": 1.175e-05,
        "meta_mean_motion_ddot": 0,
        "tle_line1": "1 40718U 15032D   25351.57507902  .00001175  00000+0  15134-3 0  9992",
        "tle_line2": "2 40718  97.6398 172.4057 0014722 165.6370 194.5266 14.82765159562424"
      },
      "geometry": {
        "type": "Point",
        "coordinates": [
          -177.42757958393523,
          -51.89170291756714
        ]
      }
    },
    {
      "type": "Feature",
      "properties": {
        "norad_id": 40878,
        "name": "YAOGAN-27",
        "group": "resource",
        "lat": 27.090961193579762,
        "lon": 166.52038348436375,
        "alt_km": 1201.5661964855735,
        "timestamp": "2025-12-17T21:39:45.365928+00:00",
        "meta_object_name": "YAOGAN-27",
        "meta_object_id": "2015-040A",
        "meta_epoch": "2025-12-17T15:25:00.079392",
        "meta_mean_motion": 13.1606167,
        "meta_eccentricity": 0.0007597,
        "meta_inclination": 100.1007,
        "meta_ra_of_asc_node": 341.0407,
        "meta_arg_of_pericenter": 274.9746,
        "meta_mean_anomaly": 85.0501,
        "meta_ephemeris_type": 0,
        "meta_classification_type": "U",
        "meta_norad_cat_id": 40878,
        "meta_element_set_no": 999,
        "meta_rev_at_epoch": 49378,
        "meta_bstar": 0.0010619184,
        "meta_mean_motion_dot": 3.61e-06,
        "meta_mean_motion_ddot": 0,
        "tle_line1": "1 40878U 15040A   25351.64236203  .00000361  00000+0  10619-2 0  9997",
        "tle_line2": "2 40878 100.1007 341.0407 0007597 274.9746  85.0501 13.16061670493785"
      },
      "geometry": {
        "type": "Point",
        "coordinates": [
          166.52038348436375,
          27.090961193579762
        ]
      }
    },
    {
      "type": "Feature",
      "properties": {
        "norad_id": 40894,
        "name": "GAOFEN-9 01",
        "group": "resource",
        "lat": -41.651975446765206,
        "lon": -156.2344914352343,
        "alt_km": 646.1357844907425,
        "timestamp": "2025-12-17T21:39:45.365937+00:00",
        "meta_object_name": "GAOFEN-9 01",
        "meta_object_id": "2015-047A",
        "meta_epoch": "2025-12-17T15:48:14.786208",
        "meta_mean_motion": 14.82434473,
        "meta_eccentricity": 0.0028005,
        "meta_inclination": 97.6537,
        "meta_ra_of_asc_node": 30.4015,
        "meta_arg_of_pericenter": 18.5712,
        "meta_mean_anomaly": 341.6517,
        "meta_ephemeris_type": 0,
        "meta_classification_type": "U",
        "meta_norad_cat_id": 40894,
        "meta_element_set_no": 999,
        "meta_rev_at_epoch": 55329,
        "meta_bstar": 0.00012455389,
        "meta_mean_motion_dot": 9.54e-06,
        "meta_mean_motion_ddot": 0,
        "tle_line1": "1 40894U 15047A   25351.65850447  .00000954  00000+0  12455-3 0  9994",
        "tle_line2": "2 40894  97.6537  30.4015 0028005  18.5712 341.6517 14.82434473553297"
      },
      "geometry": {
        "type": "Point",
        "coordinates": [
          -156.2344914352343,
          -41.651975446765206
        ]
      }
    }
  ]
}